ION SCV-008             
1 55051U 23001AU  26068.82429008  .00008336  00000+0  31423-3 0  9992
2 55051  97.5676 163.6060 0015192   8.5420 351.6074 15.27226640176169
STARLINK-30771          
1 58169U 23166V   26068.64378817  .00003727  00000+0  13788-3 0  9991
2 58169  53.1590 219.7305 0000545 105.8758 254.2303 15.30196951133173
